
STARLINK-30984          
1 58480U 23186H   24351.67418132  .00000680  00000+0  65432-4 0  9999
2 58480  43.0043 341.3850 0001041 276.6970  83.3754 15.02533990 58424
STARLINK-30956          
1 58481U 23186J   24351.29169693 -.00001647  00000+0 -10679-3 0  9991
2 58481  43.0034 319.2577 0001121 288.6257  71.4463 15.02575722 58643
STARLINK-30997          
1 58482U 23186K   24350.69365854  .00000753  00000+0  70800-4 0  9990
2 58482  43.0028 346.8994 0000665 270.7993  89.2773 15.02536911 58319
STARLINK-30994          
1 58483U 23186L   24351.80226233 -.00002164  00000+0 -72963-4 0  9994
2 58483  43.0000 266.3169 0001009 295.2482  64.8265 15.25883247 59259
STARLINK-30991          
1 58484U 23186M   24351.40494494  .00000228  00000+0  31980-4 0  9998
2 58484  43.0050 342.8024 0001170 272.9167  87.1542 15.02525846 58377
STARLINK-30979          
1 58485U 23186N   24351.38176900 -.00002198  00000+0 -14773-3 0  9995
2 58485  43.0040 343.4949 0001106 272.8491  87.2225 15.02519450 58360
STARLINK-31005          
1 58486U 23186P   24351.37841778  .00000813  00000+0  75232-4 0  9995
2 58486  43.0083 343.4653 0001497 270.3773  89.6898 15.02532798 58361
STARLINK-30987          
1 58487U 23186Q   24351.70748128  .00001618  00000+0  13483-3 0  9991
2 58487  43.0029 341.6341 0000173 271.3650  88.7172 15.02531534 58419
STARLINK-31000          
1 58488U 23186R   24351.03937063  .00001196  00000+0  10364-3 0  9992
2 58488  43.0030 345.2219 0001025 284.6223  75.4506 15.02528860 58272
STARLINK-30993          
1 58489U 23186S   24351.03603891 -.00004025  00000+0 -28314-3 0  9992
2 58489  42.9998 345.1956 0000803 261.9683  98.1068 15.02528378 58316
STARLINK-30978          
1 58490U 23186T   24351.43158691  .00003604  00000+0  28188-3 0  9990
2 58490  43.0088 343.0041 0001279 280.5998  79.4700 15.02511739 58594
STARLINK-30953          
1 58491U 23186U   24351.83191849 -.00000728  00000+0 -18003-4 0  9999
2 58491  43.0032 277.8433 0001232 266.0273  94.0438 15.25879531 59120
STARLINK-30986          
1 58492U 23186V   24350.69033172  .00001085  00000+0  95410-4 0  9999
2 58492  43.0040 346.9028 0000925 273.9941  86.0796 15.02535359 58304
STARLINK-30985          
1 58493U 23186W   24351.68417779  .00001830  00000+0  15051-3 0  9999
2 58493  43.0049 341.4608 0001438 253.2191 106.8494 15.02536235 58429
STARLINK-30981          
1 58494U 23186X   24351.28197270  .00001846  00000+0  15169-3 0  9994
2 58494  43.0026 343.6016 0001206 268.0676  92.0028 15.02533650 58356
STARLINK-31002          
1 58495U 23186Y   24351.34512333  .00000824  00000+0  76060-4 0  9996
2 58495  43.0045 343.2172 0001295 272.1216  87.9478 15.02530834 58578
2023-187A               
1 58496U 23187A   24351.75150787  .00002349  00000+0  30438-3 0  9996
2 58496  97.9726  66.7165 0013163 123.9768 236.2697 14.81727034 55984
MISRSAT-2               
1 58497U 23187B   24351.75939540  .00003240  00000+0  42727-3 0  9994
2 58497  97.9740  66.4563 0012691 123.7691 236.4732 14.80719154 55950
2023-187C               
1 58498U 23187C   24351.75529924  .00005298  00000+0  67288-3 0  9990
2 58498  97.9737  66.7379 0012545 124.0494 236.1912 14.82030595 55974
DOORY-SAT               
1 58500U 23188A   24351.77753802  .00003756  00000+0  54292-3 0  9999
2 58500  46.9830  90.1653 0010035 309.0155  50.9844 14.77904769 55932
2023-189A               
1 58502U 23189A   24351.77909886  .00007967  00000+0  30825-3 0  9991
2 58502  97.4592 357.2513 0014256  47.2546 312.9890 15.26379112 57506
2023-189B               
1 58503U 23189B   24351.80692851  .00024197  00000+0  70487-3 0  9999
2 58503  97.4527 359.2254 0012935  46.8951 313.3372 15.35306910 57647
2023-190A               
1 58505U 23190A   24351.80102262  .00000071  00000+0  10333-3 0  9994
2 58505  86.5053 161.9822 0001453 108.1984 251.9317 13.39498474 51416
STARLINK-31026          
1 58508U 23191A   24350.79728157 -.00000434  00000+0 -17046-4 0  9996
2 58508  43.0014  26.2231 0000750 278.2525  81.8232 15.02531443 57902
STARLINK-31020          
1 58509U 23191B   24351.12645808  .00008229  00000+0  62403-3 0  9990
2 58509  43.0062  25.2434 0000669 234.1380 125.9400 15.02504139 57852
STARLINK-30989          
1 58510U 23191C   24350.80924914  .00001327  00000+0  11329-3 0  9997
2 58510  43.0013  25.4586 0000850 272.5460  87.5285 15.02532542 57940
STARLINK-30968          
1 58511U 23191D   24351.80308536 -.00000211  00000+0 -54407-6 0  9995
2 58511  43.0007  20.0143 0000781 273.8878  86.1875 15.02534323 58045
STARLINK-30982          
1 58512U 23191E   24350.80258626  .00000291  00000+0  36592-4 0  9998
2 58512  43.0034  25.4066 0001076 271.1375  88.9344 15.02536152 57918
STARLINK-30998          
1 58513U 23191F   24351.13164864 -.00000847  00000+0 -47590-4 0  9995
2 58513  43.0037  23.5732 0001168 286.7000  73.3714 15.02544192 57990
STARLINK-30983          
1 58514U 23191G   24351.15483988  .00000409  00000+0  45371-4 0  9996
2 58514  43.0015  22.8983 0001165 274.0570  86.0139 15.02535239 57563
STARLINK-31017          
1 58515U 23191H   24351.15629837 -.00000819  00000+0 -12351-4 0  9991
2 58515  42.9974 254.4763 0001700 265.3859  94.6804 15.40691462 59326
STARLINK-31028          
1 58516U 23191J   24351.78976842 -.00000029  00000+0  12953-4 0  9992
2 58516  43.0024  19.9138 0001063 279.7678  80.3044 15.02532698 58044
STARLINK-31011          
1 58517U 23191K   24351.39422887  .00000343  00000+0  40475-4 0  9993
2 58517  43.0033  22.1032 0000929 264.0808  95.9929 15.02536381 58032
STARLINK-31021          
1 58518U 23191L   24351.14484481 -.00001308  00000+0 -81798-4 0  9992
2 58518  43.0034  22.7969 0000929 268.1690  91.9045 15.02537636 58009
STARLINK-31010          
1 58519U 23191M   24351.81291823  .00000133  00000+0  24917-4 0  9996
2 58519  43.0065  19.1758 0002075 262.7210  97.3397 15.02571739 58048
STARLINK-31003          
1 58520U 23191N   24351.45404897  .00000672  00000+0  64782-4 0  9997
2 58520  43.0059  21.6950 0000904 266.8999  93.1740 15.02535893 58040
STARLINK-31015          
1 58521U 23191P   24351.45072265 -.00000413  00000+0 -15503-4 0  9990
2 58521  43.0041  21.6720 0000862 269.5174  90.5570 15.02530119 57985
STARLINK-31023          
1 58522U 23191Q   24351.77977059 -.00003793  00000+0 -26568-3 0  9997
2 58522  43.0035  19.8359 0001259 285.9875  74.0828 15.02556226 58090
STARLINK-30932          
1 58523U 23191R   24351.77644659  .00007834  00000+0  59432-3 0  9999
2 58523  43.0031  19.8117 0001718 268.3729  91.6916 15.02538643 58021
STARLINK-30992          
1 58524U 23191S   24351.77312346  .00001357  00000+0  11549-3 0  9996
2 58524  43.0034  19.7864 0000776 310.9295  49.1480 15.02527212 57920
STARLINK-30948          
1 58525U 23191T   24351.76977811 -.00001972  00000+0 -13094-3 0  9992
2 58525  43.0017  19.7593 0001634 264.8973  95.1683 15.02534266 58097
STARLINK-31013          
1 58526U 23191U   24351.76643376  .00002764  00000+0  21947-3 0  9993
2 58526  43.0030  19.7331 0000193 143.2767 216.8089 15.02556972 58048
STARLINK-31001          
1 58527U 23191V   24350.81910670  .00000432  00000+0  47032-4 0  9997
2 58527  43.0033  24.5779 0001065 277.9295  82.1427 15.02538069 57925
STARLINK-31004          
1 58528U 23191W   24350.83242051 -.00004394  00000+0 -31019-3 0  9991
2 58528  43.0027  24.7625 0001340 266.7707  93.2982 15.02562225 57943
STARLINK-30988          
1 58529U 23191X   24351.36092756 -.00000036  00000+0  12433-4 0  9994
2 58529  43.0025  21.8505 0001075 262.9029  97.1691 15.02541100 57496
STARLINK-31009          
1 58530U 23191Y   24351.09169042 -.00000165  00000+0  28423-5 0  9999
2 58530  43.0003  23.2699 0000851 270.0062  90.0683 15.02534846 57999
STARLINK-31012          
1 58531U 23192A   24351.02078052  .00002621  00000+0  10052-3 0  9999
2 58531  53.1610 346.6572 0001519  95.2775 264.8399 15.30228456 58486
STARLINK-31035          
1 58532U 23192B   24351.36807916  .00041230  00000+0  11733-2 0  9991
2 58532  53.1604 343.8281 0005468  76.1355 284.0256 15.35736995 58556
STARLINK-31036          
1 58533U 23192C   24351.38222208 -.00001238  00000+0 -29706-4 0  9996
2 58533  53.1612 345.3826 0001346 114.2778 245.8363 15.30185639 58543
STARLINK-30936          
1 58534U 23192D   24351.27377444  .00049436  00000+0  15735-2 0  9993
2 58534  53.1586 345.4087 0002820 100.1094 260.0226 15.32118921 58524
STARLINK-31032          
1 58535U 23192E   24351.28524909 -.00000634  00000+0 -92760-5 0  9990
2 58535  53.1609 345.4633 0001193  94.7543 265.3594 15.30183096 58537
STARLINK-31037          
1 58536U 23192F   24351.02819769 -.00003579  00000+0 -10878-3 0  9993
2 58536  53.1622 346.7300 0000715 104.6406 255.4674 15.30197138 58492
STARLINK-31041          
1 58537U 23192G   24351.28841054 -.00000467  00000+0 -36432-5 0  9993
2 58537  53.1605 345.4821 0001493  92.7399 267.3772 15.30185644 58535
STARLINK-31014          
1 58538U 23192H   24351.69084898 -.00000029  00000+0  11160-4 0  9997
2 58538  53.1610 343.7284 0001312  97.2406 262.8744 15.30191711 58536
STARLINK-31055          
1 58539U 23192J   24351.43275795 -.00000170  00000+0  64059-5 0  9991
2 58539  53.1616 344.9600 0001449  89.2021 270.9145 15.30188856 58545
STARLINK-31019          
1 58540U 23192K   24351.68451948  .00000179  00000+0  18185-4 0  9992
2 58540  53.1632 343.6845 0001754  86.4955 273.6246 15.30191235 58587
STARLINK-31045          
1 58541U 23192L   24351.40733972 -.00007961  00000+0 -53760-3 0  9998
2 58541  53.1616  27.2616 0001241  85.4468 274.6664 15.04909984 57932
STARLINK-31030          
1 58542U 23192M   24350.71745363 -.00001519  00000+0 -39155-4 0  9995
2 58542  53.1620 348.3201 0001380  90.2384 269.8775 15.30202950 57241
